[{"OBJECT_NAME":"STARLINK-36457","OBJECT_ID":"2026-003R","EPOCH":"2026-03-09T18:00:44.233344","MEAN_MOTION":15.27585861,"ECCENTRICITY":0.0001805,"INCLINATION":43,"RA_OF_ASC_NODE":226.6801,"ARG_OF_PERICENTER":270.3176,"MEAN_ANOMALY":89.7469,"EPHEMERIS_TYPE":0,"CLASSIFICATION_TYPE":"U","NORAD_CAT_ID":67349,"ELEMENT_SET_NO":999,"REV_AT_EPOCH":883,"BSTAR":0.0012266172,"MEAN_MOTION_DOT":0.00033652,"MEAN_MOTION_DDOT":0},{"OBJECT_NAME":"COSMOS 2251 DEB","OBJECT_ID":"1993-036N","EPOCH":"2026-03-09T20:39:34.848000","MEAN_MOTION":15.17003756,"ECCENTRICITY":0.00564486,"INCLINATION":74.0035,"RA_OF_ASC_NODE":352.1163,"ARG_OF_PERICENTER":60.1769,"MEAN_ANOMALY":300.5022,"EPHEMERIS_TYPE":0,"CLASSIFICATION_TYPE":"U","NORAD_CAT_ID":33765,"ELEMENT_SET_NO":999,"REV_AT_EPOCH":90936,"BSTAR":0.0026022202,"MEAN_MOTION_DOT":0.00053945,"MEAN_MOTION_DDOT":0}]
